QIANFAN-57              
1 62787U 25016C   25289.20301656  .00000087  00000+0  11588-3 0  9993
2 62787  88.9745 109.1398 0001346  63.1782 296.9507 13.50975354 39434
QIANFAN-58              
1 62788U 25016D   25289.17417550  .00000083  00000+0  10994-3 0  9997
2 62788  88.9714 108.9922 0014806 143.9168 216.2985 13.50974974 39477
QIANFAN-59              
1 62789U 25016E   25289.19884707  .00000090  00000+0  12101-3 0  9992
2 62789  88.9738 109.0496 0015103 147.5571 212.6511 13.50974256 39479
QIANFAN-60              
1 62790U 25016F   25273.45632892  .00000063  00000+0  77135-4 0  9991
2 62790  88.9732 110.6637 0014892 189.3455 170.7422 13.52524324 37336
QIANFAN-61              
1 62791U 25016G   25289.19059507  .00000086  00000+0  11375-3 0  9994
2 62791  88.9786 109.1566 0015660 143.8441 216.3772 13.50974567 39472
QIANFAN-62              
1 62792U 25016H   25289.19484200  .00000091  00000+0  12207-3 0  9998
2 62792  88.9733 109.0558 0017039 144.6507 215.5777 13.50968529 39465
QIANFAN-63              
1 62793U 25016J   25289.14536328  .00000091  00000+0  12159-3 0  9999
2 62793  88.9741 109.0086 0016940 149.8407 210.3723 13.50971575 39499
QIANFAN-64              
1 62794U 25016K   25289.18650140  .00000081  00000+0  10706-3 0  9998
2 62794  88.9726 108.9861 0015077 142.3741 217.8468 13.50973148 39497
